"spkid","full_name","pdes","name","prefix","neo","pha","H","G","M1","M2","K1","K2","PC","diameter","extent","albedo","rot_per","GM","BV","UB","IR","spec_B","spec_T","H_sigma","diameter_sigma","orbit_id","epoch","epoch.mjd","epoch.cal","equinox","e","a","q","i","om","w","ma","ad","n","tp","tp.cal","per","per.y","moid","moid.ld","moid_jup","t_jup","sigma_e","sigma_a","sigma_q","sigma_i","sigma_om","sigma_w","sigma_ma","sigma_ad","sigma_n","sigma_tp","sigma_per","class","producer","data_arc","first_obs","last_obs","n_obs_used","n_del_obs_used","n_dop_obs_used","condition_code","rms","two_body","A1","A2","A3","DT"
3790094,"       (2014 UY228)","2014 UY228",,,N,N,8.0,,,,,,,,,,,,,,,,,,,3,2459600.5,59600,2022-01-21.0000000,J2000,.05766658996040815,43.58902036345016,41.0753901993752,2.553795383057831,327.575292968901,57.21618464615918,13.13621958653951,46.10265052752512,.003424825204465101,2455764.911669999036,2011-07-22.4116700,105114.8536079014,287.788784689668,40.0805,15598.128185,36.1284,5.893,.00011147,.0054617,.0015894,.00056181,.022878,.34274,.30295,.0057767,6.437E-7,88.695,19.756,TNO,"Otto Matic",2269,2013-08-09,2019-10-26,29,,,4,.17532,,,,,
3790087,"       (2014 UZ228)","2014 UZ228",,,N,N,8.8,,,,,,,,,,,,,,,,,,,3,2459600.5,59600,2022-01-21.0000000,J2000,.2159765723069012,39.77363470196546,31.18346141084814,2.649069965976475,308.6890949419774,121.8868589974279,343.8904734683658,48.36380799308277,.003929263490172828,2463700.384513198079,2033-04-12.8845132,91620.22371377426,250.842501611976,30.1988,11752.466996,26.1221,5.524,9.6342E-5,.0043108,.0029978,.000129,.016563,.041841,.022939,.0052418,6.388E-7,5.6198,14.895,TNO,"Otto Matic",2269,2013-08-09,2019-10-26,34,,,3,.18575,,,,,
3790093,"       (2014 UC229)","2014 UC229",,,N,N,8.1,,,,,,,,,,,,,,,,,,,2,2459600.5,59600,2022-01-21.0000000,J2000,.1152919976733187,45.80679091167924,40.52563448046772,3.825615634887744,337.4712381331266,328.4968956663857,79.05853744826143,51.08794734289076,.003179137213365543,2434732.577622856876,1953-12-21.0776229,113238.2705869092,310.029488259847,39.5123,15377.001791,35.4184,5.995,.00051444,.008754,.018534,.00063173,.012217,.053997,.06619,.0097632,9.1133E-7,13.781,32.461,TNO,"Otto Matic",1482,2013-08-09,2017-08-30,39,,,4,.15419,,,,,
3790100,"       (2014 UD229)","2014 UD229",,,N,N,8.4,,,,,,,,,,,,,,,,,,,2,2459600.5,59600,2022-01-21.0000000,J2000,.1454399084300162,36.54493555500201,31.22984347430167,6.832329000120976,358.1452840101363,106.867362663619,312.474754582951,41.86002763570235,.004461318952884103,2470253.234296507841,2051-03-22.7342965,80693.62531617949,220.927105588445,30.2532,11773.637844,26.0483,5.349,.00065424,.006698,.018858,.00070181,.0036518,.082155,.022236,.0076721,1.2265E-6,5.2629,22.184,TNO,"Otto Matic",881,2013-08-09,2016-01-07,46,,,3,.16157,,,,,
3790096,"       (2014 UE229)","2014 UE229",,,N,N,7.9,,,,,,,,,,,,,,,,,,,2,2459600.5,59600,2022-01-21.0000000,J2000,.03757463549773638,43.13727796875432,41.51641047271384,6.011265665172381,239.5554469838573,193.2400802847011,328.8534087148604,44.7581454647948,.003478764010712882,2468553.849864843773,2046-07-27.3498648,103485.0305715987,283.326572406841,40.5315,15773.643855,36.4304,5.843,.00027936,.0046989,.01155,.00085852,.0046963,.48785,.44156,.0048755,5.6841E-7,126.77,16.909,TNO,"Otto Matic",1482,2013-08-09,2017-08-30,43,,,4,.197,,,,,
3790105,"       (2014 UF229)","2014 UF229",,,N,N,8.4,,,,,,,,,,,,,,,,,,,2,2459600.5,59600,2022-01-21.0000000,J2000,.08737156625565068,38.30931924729529,34.96217402247135,19.42429734745471,217.961400799502,338.5642336157188,206.3269663523983,41.65646447211922,.004156687944321746,2496570.567444568958,2123-04-12.0674446,86607.4155246075,237.118180765524,33.9685,13219.521145,29.5548,5.234,.00070506,.0046172,.025903,.0020873,.00098977,1.9238,2.2919,.0050206,7.5147E-7,548.37,15.657,TNO,"Otto Matic",850,2013-08-09,2015-12-07,29,,,6,.21381,,,,,
3790095,"       (2014 UH229)","2014 UH229",,,N,N,8.3,,,,,,,,,,,,,,,,,,,2,2459600.5,59600,2022-01-21.0000000,J2000,.07231761832747818,44.17574426908052,40.98105965569687,8.374383218750806,358.7849545828001,109.2572508166847,299.2766945311861,47.37042888246417,.003356821600343445,2477690.024168517364,2071-08-01.5241685,107244.3051376837,293.618905236643,40.0073,15569.640941,35.7934,5.868,.0018913,.011243,.074612,.0014794,.0061747,.36692,.15986,.012056,1.2815E-6,51.675,40.941,TNO,"Otto Matic",850,2013-08-09,2015-12-07,29,,,4,.23033,,,,,
3790104,"       (2014 UJ229)","2014 UJ229",,,N,N,8.0,,,,,,,,,,,,,,,,,,,2,2459600.5,59600,2022-01-21.0000000,J2000,.09764236327843219,41.57850080010156,37.51867772040546,20.99565515086054,222.4315881014885,220.8388674760342,324.8683072451964,45.63832387979766,.00367621442703551,2469156.986285576573,2048-03-21.4862856,97926.82313428138,268.109029799538,36.5619,14228.794623,32.5631,5.378,.00067686,.0068712,.024125,.0012431,.00074604,.33775,.24307,.0075421,9.1129E-7,67.353,24.275,TNO,"Otto Matic",1131,2014-07-26,2017-08-30,26,,,4,.15815,,,,,
3790097,"       (2014 UK229)","2014 UK229",,,N,N,8.5,,,,,,,,,,,,,,,,,,,2,2459600.5,59600,2022-01-21.0000000,J2000,.07397198750345314,42.97163675880597,39.79293938148065,2.339603626371776,295.4480156481908,44.87780370334396,48.67852977216509,46.1503341361313,.003498897579870037,2445687.966505957796,1983-12-19.4665060,102889.5507176783,281.696237420064,38.7858,15094.269786,34.8043,5.848,.00029484,.0059931,.010197,2.1669E-5,.020069,.20701,.16477,.0064365,7.3197E-7,47.513,21.525,TNO,"Otto Matic",1483,2013-08-08,2017-08-30,40,,,4,.24784,,,,,
3790102,"       (2014 UL229)","2014 UL229",,,N,N,8.0,,,,,,,,,,,,,,,,,,,3,2459600.5,59600,2022-01-21.0000000,J2000,.1003679943272072,42.93081219371542,38.62193267899419,2.58198158863157,251.9889418874916,38.56667073925041,92.92194937275806,47.23969170843664,.003503889621164893,2433080.843441336630,1949-06-13.3434413,102742.9625138464,281.294900790818,37.6072,14635.594024,33.4456,5.831,.00064964,.0092934,.023191,.0010121,.023095,.091398,.15036,.010226,1.1377E-6,34.967,33.362,TNO,"Otto Matic",1890,2014-08-23,2019-10-26,21,,,4,.13507,,,,,
3790099,"       (2014 UM229)","2014 UM229",,,N,N,8.5,,,,,,,,,,,,,,,,,,,"JPL 3",2459600.5,59600,2022-01-21.0000000,J2000,.1375709762995688,43.92653700459304,37.88352042341204,4.201999295282776,244.9059917172401,164.8597100000408,351.0026091342793,49.96955358577404,.003385428329404449,2462258.181684640311,2029-05-01.6816846,106338.0952044345,291.137837657589,36.8944,14358.193648,32.8849,5.859,8.9453E-5,.0050722,.0019031,.00047387,.0052263,.055608,.041057,.00577,5.8637E-7,12.091,18.418,TNO,"Otto Matic",2987,2013-09-01,2021-11-05,40,,,3,.25071,,,,,
3790103,"       (2014 UN229)","2014 UN229",,,N,N,8.5,,,,,,,,,,,,,,,,,,,2,2459600.5,59600,2022-01-21.0000000,J2000,.07042438692102462,42.45450905827568,39.46467628581353,8.231806674040291,5.187688237413843,79.33087725248737,318.0622563425067,45.44434183073783,.003563020649113869,2471370.778027415676,2054-04-13.2780274,101037.8651859716,276.626598729559,38.4908,14979.464636,34.3975,5.762,.00035097,.0051099,.013512,.00084157,.0022879,.20262,.15808,.0054697,6.4327E-7,44.319,18.242,TNO,"Otto Matic",1459,2013-09-01,2017-08-30,32,,,4,.31807,,,,,
3790098,"       (2014 UO229)","2014 UO229",,,N,N,8.4,,,,,,,,,,,,,,,,,,,2,2459600.5,59600,2022-01-21.0000000,J2000,.166375469074576,39.69673721430283,33.09217393954302,10.06348099167226,3.214901229456741,349.2930588168204,34.64435016091149,46.30130048906264,.003940686221251447,2450809.048913618029,1997-12-26.5489136,91354.64733491887,250.115393114083,32.0883,12487.803711,28.1246,5.494,.00013784,.0042393,.0036803,.00059244,.0014078,.062631,.040675,.0049446,6.3125E-7,10.509,14.634,TNO,"Otto Matic",1483,2013-08-08,2017-08-30,46,,,4,.17125,,,,,
3790106,"       (2014 UP229)","2014 UP229",,,N,N,7.7,,,,,,,,,,,,,,,,,,,2,2459600.5,59600,2022-01-21.0000000,J2000,.1718596407533211,45.88577042539738,37.99985840439923,5.821321461765847,232.9225092243955,261.7772991253314,277.3834581858863,53.77168244639554,.00317093275366261,2485654.834239250849,2093-05-22.3342393,113531.2628702641,310.831657413454,37.0192,14406.762064,32.7,5.934,.00060984,.010561,.020516,.001153,.0062509,.075391,.14709,.012376,1.0947E-6,37.812,39.194,TNO,"Otto Matic",1478,2013-08-08,2017-08-25,46,,,4,.26347,,,,,
3790111,"       (2014 UR229)","2014 UR229",,,N,N,8.4,,,,,,,,,,,,,,,,,,,2,2459600.5,59600,2022-01-21.0000000,J2000,.02715254859371037,43.41161559681203,42.23287959478812,4.100241071769717,254.4808858359901,134.10320007671,5.546898123159931,44.59035159883594,.003445840338875039,2457990.762583967886,2017-08-25.2625840,104473.7900182366,286.033648236103,41.2397,16049.254049,37.2831,5.880,.00012365,.0051152,.0062946,.0009105,.015157,4.1721,3.9481,.0052541,6.0903E-7,1145.9,18.465,TNO,"Otto Matic",851,2013-08-08,2015-12-07,34,,,5,.31713,,,,,
3790115,"       (2014 US229)","2014 US229",,,N,N,8.2,,,,,,,,,,,,,,,,,,,2,2459600.5,59600,2022-01-21.0000000,J2000,.4040206057580465,55.80485910382166,33.2585461244532,3.904225677000657,254.6890665355266,137.7098926577756,3.178196560696131,78.35117208319012,.002364264438551386,2458256.235581488739,2018-05-17.7355815,152267.2312495536,416.884958931016,32.2662,12557.037054,28.3059,6.071,8.2345E-5,.0081362,.0018666,.00039604,.0070587,.067286,.025851,.011423,5.1706E-7,10.932,33.3,TNO,"Otto Matic",1269,2013-08-08,2017-01-28,42,,,4,.11435,,,,,
3790109,"       (2014 UT229)","2014 UT229",,,N,N,8.7,,,,,,,,,,,,,,,,,,,2,2459600.5,59600,2022-01-21.0000000,J2000,.1361454210122028,39.65385429496199,34.25516360721784,43.37547092053599,208.6267653216553,147.1695096137633,31.44034525130817,45.05254498270614,.003947080321323591,2451635.031174484650,2000-03-31.5311745,91206.65674198384,249.710216952728,33.322,12967.92274,29.5994,4.107,.00032061,.0079157,.008186,.0012378,.00014717,.20186,.14216,.0089934,1.1819E-6,37.105,27.31,TNO,"Otto Matic",1103,2014-08-23,2017-08-30,28,,,4,.18882,,,,,
